{"type": "FeatureCollection", "features": [ {"type": "Feature", "properties": {"norad_id": 41836, "name": "HIMAWARI-9", "group": "weather", "lat": 0.014223230284822315, "lon": 139.1005034691339, "alt_km": 35794.044867330966, "timestamp": "2025-12-06T18:50:09.814038+00:00", "meta": {"OBJECT_NAME": "HIMAWARI-9", "OBJECT_ID": "2016-064A", "EPOCH": "2025-12-05T16:04:44.799744", "MEAN_MOTION": 1.00271955, "ECCENTRICITY": 0.00019742, "INCLINATION": 0.0132, "RA_OF_ASC_NODE": 58.9298, "ARG_OF_PERICENTER": 241.9648, "MEAN_ANOMALY": 155.7705, "EPHEMERIS_TYPE": 0, "CLASSIFICATION_TYPE": "U", "NORAD_CAT_ID": 41836, "ELEMENT_SET_NO": 999, "REV_AT_EPOCH": 3327, "BSTAR": 0, "MEAN_MOTION_DOT": -2.64e-06, "MEAN_MOTION_DDOT": 0}, "tle": {"line1": "1 41836U 16064A   25339.66996296 -.00000264  00000+0  00000+0 0  9995", "line2": "2 41836   0.0132  58.9298 0001974 241.9648 155.7705  1.00271955 33271"}}, "geometry": {"type": "Point", "coordinates": [139.1005034691339, 0.014223230284822315]}}, {"type": "Feature", "properties": {"norad_id": 41866, "name": "GOES 16", "group": "weather", "lat": 0.0012823182992927826, "lon": -106.32446248382041, "alt_km": 35771.291168920005, "timestamp": "2025-12-06T18:50:09.814050+00:00", "meta": {"OBJECT_NAME": "GOES 16", "OBJECT_ID": "2016-071A", "EPOCH": "2025-12-06T06:19:09.293664", "MEAN_MOTION": 1.00271361, "ECCENTRICITY": 0.00035358, "INCLINATION": 0.0627, "RA_OF_ASC_NODE": 108.4623, "ARG_OF_PERICENTER": 150.7148, "MEAN_ANOMALY": 166.2474, "EPHEMERIS_TYPE": 0, "CLASSIFICATION_TYPE": "U", "NORAD_CAT_ID": 41866, "ELEMENT_SET_NO": 999, "REV_AT_EPOCH": 3316, "BSTAR": 0, "MEAN_MOTION_DOT": -8.3e-07, "MEAN_MOTION_DDOT": 0}, "tle": {"line1": "1 41866U 16071A   25340.26330201 -.00000083  00000+0  00000+0 0  9991", "line2": "2 41866   0.0627 108.4623 0003535 150.7148 166.2474  1.00271361 33162"}}, "geometry": {"type": "Point", "coordinates": [-106.32446248382041, 0.0012823182992927826]}}, {"type": "Feature", "properties": {"norad_id": 41882, "name": "FENGYUN 4A", "group": "weather", "lat": 1.185313236435564, "lon": 122.08271119399294, "alt_km": 35789.621166782454, "timestamp": "2025-12-06T18:50:09.814062+00:00", "meta": {"OBJECT_NAME": "FENGYUN 4A", "OBJECT_ID": "2016-077A", "EPOCH": "2025-12-06T05:41:35.393280", "MEAN_MOTION": 1.00276729, "ECCENTRICITY": 0.00050304, "INCLINATION": 1.8319, "RA_OF_ASC_NODE": 82.4579, "ARG_OF_PERICENTER": 142.9766, "MEAN_ANOMALY": 59.0342, "EPHEMERIS_TYPE": 0, "CLASSIFICATION_TYPE": "U", "NORAD_CAT_ID": 41882, "ELEMENT_SET_NO": 999, "REV_AT_EPOCH": 3299, "BSTAR": 0, "MEAN_MOTION_DOT": -3.49e-06, "MEAN_MOTION_DDOT": 0}, "tle": {"line1": "1 41882U 16077A   25340.23721520 -.00000349  00000+0  00000+0 0  9995", "line2": "2 41882   1.8319  82.4579 0005030 142.9766  59.0342  1.00276729 32995"}}, "geometry": {"type": "Point", "coordinates": [122.08271119399294, 1.185313236435564]}}, {"type": "Feature", "properties": {"norad_id": 41884, "name": "CYGFM05", "group": "weather", "lat": -33.074838884782594, "lon": -25.20463486856102, "alt_km": 430.27895599438216, "timestamp": "2025-12-06T18:50:09.814073+00:00", "meta": {"OBJECT_NAME": "CYGFM05", "OBJECT_ID": "2016-078A", "EPOCH": "2025-12-06T00:43:06.354624", "MEAN_MOTION": 15.47267289, "ECCENTRICITY": 0.00094336, "INCLINATION": 34.9593, "RA_OF_ASC_NODE": 90.9471, "ARG_OF_PERICENTER": 120.2641, "MEAN_ANOMALY": 239.9015, "EPHEMERIS_TYPE": 0, "CLASSIFICATION_TYPE": "U", "NORAD_CAT_ID": 41884, "ELEMENT_SET_NO": 999, "REV_AT_EPOCH": 49872, "BSTAR": 0.00050795434, "MEAN_MOTION_DOT": 0.00026763, "MEAN_MOTION_DDOT": 0}, "tle": {"line1": "1 41884U 16078A   25340.02993466  .00026763  00000+0  50795-3 0  9992", "line2": "2 41884  34.9593  90.9471 0009433 120.2641 239.9015 15.47267289498725"}}, "geometry": {"type": "Point", "coordinates": [-25.20463486856102, -33.074838884782594]}}, {"type": "Feature", "properties": {"norad_id": 41885, "name": "CYGFM04", "group": "weather", "lat": 33.24911027644486, "lon": 130.88980525720115, "alt_km": 409.8302328124946, "timestamp": "2025-12-06T18:50:09.814084+00:00", "meta": {"OBJECT_NAME": "CYGFM04", "OBJECT_ID": "2016-078B", "EPOCH": "2025-12-06T06:09:17.672256", "MEAN_MOTION": 15.49961935, "ECCENTRICITY": 0.00086591, "INCLINATION": 34.9353, "RA_OF_ASC_NODE": 64.4321, "ARG_OF_PERICENTER": 151.3281, "MEAN_ANOMALY": 208.7919, "EPHEMERIS_TYPE": 0, "CLASSIFICATION_TYPE": "U", "NORAD_CAT_ID": 41885, "ELEMENT_SET_NO": 999, "REV_AT_EPOCH": 49893, "BSTAR": 0.0005769978, "MEAN_MOTION_DOT": 0.00033454, "MEAN_MOTION_DDOT": 0}, "tle": {"line1": "1 41885U 16078B   25340.25645454  .00033454  00000+0  57700-3 0  9997", "line2": "2 41885  34.9353  64.4321 0008659 151.3281 208.7919 15.49961935498935"}}, "geometry": {"type": "Point", "coordinates": [130.88980525720115, 33.24911027644486]}}, {"type": "Feature", "properties": {"norad_id": 41886, "name": "CYGFM02", "group": "weather", "lat": 28.661440262450625, "lon": 110.88912164749861, "alt_km": 408.41934266912904, "timestamp": "2025-12-06T18:50:09.814095+00:00", "meta": {"OBJECT_NAME": "CYGFM02", "OBJECT_ID": "2016-078C", "EPOCH": "2025-12-05T22:30:50.003136", "MEAN_MOTION": 15.51291349, "ECCENTRICITY": 0.00103484, "INCLINATION": 34.9442, "RA_OF_ASC_NODE": 64.9325, "ARG_OF_PERICENTER": 147.7014, "MEAN_ANOMALY": 212.4344, "EPHEMERIS_TYPE": 0, "CLASSIFICATION_TYPE": "U", "NORAD_CAT_ID": 41886, "ELEMENT_SET_NO": 999, "REV_AT_EPOCH": 49901, "BSTAR": 0.00052224051, "MEAN_MOTION_DOT": 0.00031761, "MEAN_MOTION_DDOT": 0}, "tle": {"line1": "1 41886U 16078C   25339.93807874  .00031761  00000+0  52224-3 0  9992", "line2": "2 41886  34.9442  64.9325 0010348 147.7014 212.4344 15.51291349499017"}}, "geometry": {"type": "Point", "coordinates": [110.88912164749861, 28.661440262450625]}}, {"type": "Feature", "properties": {"norad_id": 41887, "name": "CYGFM01", "group": "weather", "lat": -33.732259474239505, "lon": 15.403159943696597, "alt_km": 430.91651668777376, "timestamp": "2025-12-06T18:50:09.814105+00:00", "meta": {"OBJECT_NAME": "CYGFM01", "OBJECT_ID": "2016-078D", "EPOCH": "2025-12-06T00:35:17.858400", "MEAN_MOTION": 15.47836768, "ECCENTRICITY": 0.00090115, "INCLINATION": 34.9424, "RA_OF_ASC_NODE": 93.38, "ARG_OF_PERICENTER": 110.5486, "MEAN_ANOMALY": 249.6203, "EPHEMERIS_TYPE": 0, "CLASSIFICATION_TYPE": "U", "NORAD_CAT_ID": 41887, "ELEMENT_SET_NO": 999, "REV_AT_EPOCH": 49866, "BSTAR": 0.00052334662, "MEAN_MOTION_DOT": 0.00028131, "MEAN_MOTION_DDOT": 0}, "tle": {"line1": "1 41887U 16078D   25340.02451225  .00028131  00000+0  52335-3 0  9990", "line2": "2 41887  34.9424  93.3800 0009011 110.5486 249.6203 15.47836768498669"}}, "geometry": {"type": "Point", "coordinates": [15.403159943696597, -33.732259474239505]}}, {"type": "Feature", "properties": {"norad_id": 41888, "name": "CYGFM08", "group": "weather", "lat": -27.321676771779515, "lon": 23.756380315678797, "alt_km": 428.0971341512304, "timestamp": "2025-12-06T18:50:09.814117+00:00", "meta": {"OBJECT_NAME": "CYGFM08", "OBJECT_ID": "2016-078E", "EPOCH": "2025-12-05T22:57:29.299968", "MEAN_MOTION": 15.49018099, "ECCENTRICITY": 0.00107787, "INCLINATION": 34.946, "RA_OF_ASC_NODE": 76.8947, "ARG_OF_PERICENTER": 135.6475, "MEAN_ANOMALY": 224.5112, "EPHEMERIS_TYPE": 0, "CLASSIFICATION_TYPE": "U", "NORAD_CAT_ID": 41888, "ELEMENT_SET_NO": 999, "REV_AT_EPOCH": 49888, "BSTAR": 0.00051415342, "MEAN_MOTION_DOT": 0.00028831, "MEAN_MOTION_DDOT": 0}, "tle": {"line1": "1 41888U 16078E   25339.95658912  .00028831  00000+0  51415-3 0  9998", "line2": "2 41888  34.9460  76.8947 0010778 135.6475 224.5112 15.49018099498882"}}, "geometry": {"type": "Point", "coordinates": [23.756380315678797, -27.321676771779515]}}, {"type": "Feature", "properties": {"norad_id": 41890, "name": "CYGFM07", "group": "weather", "lat": -34.047494639554884, "lon": -14.885598365594536, "alt_km": 422.90231940043395, "timestamp": "2025-12-06T18:50:09.814128+00:00", "meta": {"OBJECT_NAME": "CYGFM07", "OBJECT_ID": "2016-078G", "EPOCH": "2025-12-05T23:04:17.321376", "MEAN_MOTION": 15.49591135, "ECCENTRICITY": 0.00091895, "INCLINATION": 34.9479, "RA_OF_ASC_NODE": 65.8818, "ARG_OF_PERICENTER": 154.816, "MEAN_ANOMALY": 205.3011, "EPHEMERIS_TYPE": 0, "CLASSIFICATION_TYPE": "U", "NORAD_CAT_ID": 41890, "ELEMENT_SET_NO": 999, "REV_AT_EPOCH": 49890, "BSTAR": 0.00051239643, "MEAN_MOTION_DOT": 0.00029304, "MEAN_MOTION_DDOT": 0}, "tle": {"line1": "1 41890U 16078G   25339.96131159  .00029304  00000+0  51240-3 0  9993", "line2": "2 41890  34.9479  65.8818 0009189 154.8160 205.3011 15.49591135498903"}}, "geometry": {"type": "Point", "coordinates": [-14.885598365594536, -34.047494639554884]}}, {"type": "Feature", "properties": {"norad_id": 41891, "name": "CYGFM03", "group": "weather", "lat": 30.097060612226105, "lon": -173.7086668230501, "alt_km": 407.4181243335952, "timestamp": "2025-12-06T18:50:09.814138+00:00", "meta": {"OBJECT_NAME": "CYGFM03", "OBJECT_ID": "2016-078H", "EPOCH": "2025-12-06T07:30:08.690112", "MEAN_MOTION": 15.49518459, "ECCENTRICITY": 0.00084445, "INCLINATION": 34.9434, "RA_OF_ASC_NODE": 65.4951, "ARG_OF_PERICENTER": 144.5528, "MEAN_ANOMALY": 215.5756, "EPHEMERIS_TYPE": 0, "CLASSIFICATION_TYPE": "U", "NORAD_CAT_ID": 41891, "ELEMENT_SET_NO": 999, "REV_AT_EPOCH": 49893, "BSTAR": 0.00057425617, "MEAN_MOTION_DOT": 0.00032769, "MEAN_MOTION_DDOT": 0}, "tle": {"line1": "1 41891U 16078H   25340.31260058  .00032769  00000+0  57426-3 0  9997", "line2": "2 41891  34.9434  65.4951 0008444 144.5528 215.5756 15.49518459498936"}}, "geometry": {"type": "Point", "coordinates": [-173.7086668230501, 30.097060612226105]}}]}